JILIN GAOFEN OBJECT C   
1 68693U 26080C   26117.14575679  .00000944  00000+0  64643-4 0  9992
2 68693  97.6630 192.7660 0013164 216.5655 143.4676 15.08464103  1960
JILIN GAOFEN OBJECT D   
1 68694U 26080D   26117.13968559  .00001673  00000+0  10837-3 0  9990
2 68694  97.6677 192.7815 0014644 233.4097 126.5785 15.09459501  1944
JILIN GAOFEN OBJECT E   
1 68695U 26080E   26118.73053111  .00001637  00000+0  10606-3 0  9991
2 68695  97.6641 194.3681 0015072 227.4148 132.5809 15.09490046  2169
JILIN GAOFEN OBJECT F   
1 68696U 26080F   26118.92886554  .00001555  00000+0  10081-3 0  9994
2 68696  97.6628 194.5652 0014039 229.3436 130.6572 15.09549581  2196
JILIN GAOFEN OBJECT G   
1 68697U 26080G   26112.29952414  .00003050  00000+0  19367-3 0  9996
2 68697  97.6673 187.9421 0014146 254.7084 105.2581 15.09566725  1193
JILIN GAOFEN OBJECT H   
1 68698U 26080H   26112.29931017  .00004743  00000+0  29850-3 0  9991
2 68698  97.6650 187.9421 0014104 255.6064 104.3599 15.09605996  1194
STARLINK-37358          
1 68699U 26081A   26119.85015169  .00380668  00000+0  18375-2 0  9995
2 68699  53.1583 164.5454 0002434  75.9290 284.2003 15.81002334  2467
STARLINK-37334          
1 68700U 26081B   26119.84939999  .00361666  00000+0  17505-2 0  9994
2 68700  53.1583 164.5404 0002107  77.2415 282.8843 15.80994540  2460
STARLINK-36955          
1 68701U 26081C   26119.84864909  .00381163  00000+0  18400-2 0  9992
2 68701  53.1583 164.5356 0001847  75.3788 284.7440 15.81000002  2465
STARLINK-36275          
1 68702U 26081D   26119.84789891  .00414800  00000+0  19929-2 0  9991
2 68702  53.1583 164.5306 0001792  63.9010 296.2197 15.81013958  2462
STARLINK-36271          
1 68703U 26081E   26119.84714941  .00371294  00000+0  17946-2 0  9992
2 68703  53.1580 164.5253 0002146  80.5486 279.5779 15.80998324  2465
STARLINK-37356          
1 68704U 26081F   26119.84639828  .00423743  00000+0  20330-2 0  9991
2 68704  53.1585 164.5205 0002154  65.8080 294.3168 15.81020617  2462
STARLINK-35369          
1 68705U 26081G   26119.84564661  .00322085  00000+0  15669-2 0  9990
2 68705  53.1582 164.5162 0001501  69.7910 290.3274 15.80989308  2466
STARLINK-37319          
1 68706U 26081H   26119.84340322  .00425755  00000+0  20438-2 0  9995
2 68706  53.1582 164.5003 0002935  70.6753 289.4587 15.81003604  2462
STARLINK-37112          
1 68707U 26081J   26119.84489794  .00439731  00000+0  21057-2 0  9990
2 68707  53.1585 164.5106 0001690  63.6469 296.4728 15.81020013  2461
STARLINK-37340          
1 68708U 26081K   26119.84414728  .00394656  00000+0  19012-2 0  9990
2 68708  53.1581 164.5054 0001842  70.9621 289.1601 15.81008887  2464
