[{"OBJECT_NAME":"JILIN GAOFEN OBJECT C","OBJECT_ID":"2026-080C","EPOCH":"2026-04-27T03:29:53.386656","MEAN_MOTION":15.08464103,"ECCENTRICITY":0.0013164,"INCLINATION":97.663,"RA_OF_ASC_NODE":192.766,"ARG_OF_PERICENTER":216.5655,"MEAN_ANOMALY":143.4676,"EPHEMERIS_TYPE":0,"CLASSIFICATION_TYPE":"U","NORAD_CAT_ID":68693,"ELEMENT_SET_NO":999,"REV_AT_EPOCH":196,"BSTAR":6.464321e-5,"MEAN_MOTION_DOT":9.44e-6,"MEAN_MOTION_DDOT":0},{"OBJECT_NAME":"JILIN GAOFEN OBJECT D","OBJECT_ID":"2026-080D","EPOCH":"2026-04-27T03:21:08.834976","MEAN_MOTION":15.09459501,"ECCENTRICITY":0.00146442,"INCLINATION":97.6677,"RA_OF_ASC_NODE":192.7815,"ARG_OF_PERICENTER":233.4097,"MEAN_ANOMALY":126.5785,"EPHEMERIS_TYPE":0,"CLASSIFICATION_TYPE":"U","NORAD_CAT_ID":68694,"ELEMENT_SET_NO":999,"REV_AT_EPOCH":194,"BSTAR":0.00010837065,"MEAN_MOTION_DOT":1.673e-5,"MEAN_MOTION_DDOT":0},{"OBJECT_NAME":"JILIN GAOFEN OBJECT E","OBJECT_ID":"2026-080E","EPOCH":"2026-04-28T17:31:57.887904","MEAN_MOTION":15.09490046,"ECCENTRICITY":0.00150724,"INCLINATION":97.6641,"RA_OF_ASC_NODE":194.3681,"ARG_OF_PERICENTER":227.4148,"MEAN_ANOMALY":132.5809,"EPHEMERIS_TYPE":0,"CLASSIFICATION_TYPE":"U","NORAD_CAT_ID":68695,"ELEMENT_SET_NO":999,"REV_AT_EPOCH":216,"BSTAR":0.00010605577,"MEAN_MOTION_DOT":1.637e-5,"MEAN_MOTION_DDOT":0},{"OBJECT_NAME":"JILIN GAOFEN OBJECT F","OBJECT_ID":"2026-080F","EPOCH":"2026-04-28T22:17:33.982656","MEAN_MOTION":15.09549581,"ECCENTRICITY":0.00140399,"INCLINATION":97.6628,"RA_OF_ASC_NODE":194.5652,"ARG_OF_PERICENTER":229.3436,"MEAN_ANOMALY":130.6572,"EPHEMERIS_TYPE":0,"CLASSIFICATION_TYPE":"U","NORAD_CAT_ID":68696,"ELEMENT_SET_NO":999,"REV_AT_EPOCH":219,"BSTAR":0.0001008075,"MEAN_MOTION_DOT":1.555e-5,"MEAN_MOTION_DDOT":0},{"OBJECT_NAME":"JILIN GAOFEN OBJECT G","OBJECT_ID":"2026-080G","EPOCH":"2026-04-22T07:11:18.885696","MEAN_MOTION":15.09566725,"ECCENTRICITY":0.00141468,"INCLINATION":97.6673,"RA_OF_ASC_NODE":187.9421,"ARG_OF_PERICENTER":254.7084,"MEAN_ANOMALY":105.2581,"EPHEMERIS_TYPE":0,"CLASSIFICATION_TYPE":"U","NORAD_CAT_ID":68697,"ELEMENT_SET_NO":999,"REV_AT_EPOCH":119,"BSTAR":0.00019366799,"MEAN_MOTION_DOT":3.05e-5,"MEAN_MOTION_DDOT":0},{"OBJECT_NAME":"JILIN GAOFEN OBJECT H","OBJECT_ID":"2026-080H","EPOCH":"2026-04-22T07:11:00.398688","MEAN_MOTION":15.09605996,"ECCENTRICITY":0.0014104,"INCLINATION":97.665,"RA_OF_ASC_NODE":187.9421,"ARG_OF_PERICENTER":255.6064,"MEAN_ANOMALY":104.3599,"EPHEMERIS_TYPE":0,"CLASSIFICATION_TYPE":"U","NORAD_CAT_ID":68698,"ELEMENT_SET_NO":999,"REV_AT_EPOCH":119,"BSTAR":0.00029850024,"MEAN_MOTION_DOT":4.743e-5,"MEAN_MOTION_DDOT":0},{"OBJECT_NAME":"STARLINK-37358","OBJECT_ID":"2026-081A","EPOCH":"2026-04-29T20:24:13.106016","MEAN_MOTION":15.81002334,"ECCENTRICITY":0.0002434,"INCLINATION":53.1583,"RA_OF_ASC_NODE":164.5454,"ARG_OF_PERICENTER":75.929,"MEAN_ANOMALY":284.2003,"EPHEMERIS_TYPE":0,"CLASSIFICATION_TYPE":"U","NORAD_CAT_ID":68699,"ELEMENT_SET_NO":999,"REV_AT_EPOCH":246,"BSTAR":0.0018375,"MEAN_MOTION_DOT":0.00380668,"MEAN_MOTION_DDOT":0},{"OBJECT_NAME":"STARLINK-37334","OBJECT_ID":"2026-081B","EPOCH":"2026-04-29T20:23:08.159136","MEAN_MOTION":15.8099454,"ECCENTRICITY":0.0002107,"INCLINATION":53.1583,"RA_OF_ASC_NODE":164.5404,"ARG_OF_PERICENTER":77.2415,"MEAN_ANOMALY":282.8843,"EPHEMERIS_TYPE":0,"CLASSIFICATION_TYPE":"U","NORAD_CAT_ID":68700,"ELEMENT_SET_NO":999,"REV_AT_EPOCH":246,"BSTAR":0.0017505,"MEAN_MOTION_DOT":0.00361666,"MEAN_MOTION_DDOT":0},{"OBJECT_NAME":"STARLINK-36955","OBJECT_ID":"2026-081C","EPOCH":"2026-04-29T20:22:03.281376","MEAN_MOTION":15.81000002,"ECCENTRICITY":0.0001847,"INCLINATION":53.1583,"RA_OF_ASC_NODE":164.5356,"ARG_OF_PERICENTER":75.3788,"MEAN_ANOMALY":284.744,"EPHEMERIS_TYPE":0,"CLASSIFICATION_TYPE":"U","NORAD_CAT_ID":68701,"ELEMENT_SET_NO":999,"REV_AT_EPOCH":246,"BSTAR":0.00184,"MEAN_MOTION_DOT":0.00381163,"MEAN_MOTION_DDOT":0},{"OBJECT_NAME":"STARLINK-36275","OBJECT_ID":"2026-081D","EPOCH":"2026-04-29T20:20:58.465824","MEAN_MOTION":15.81013958,"ECCENTRICITY":0.0001792,"INCLINATION":53.1583,"RA_OF_ASC_NODE":164.5306,"ARG_OF_PERICENTER":63.901,"MEAN_ANOMALY":296.2197,"EPHEMERIS_TYPE":0,"CLASSIFICATION_TYPE":"U","NORAD_CAT_ID":68702,"ELEMENT_SET_NO":999,"REV_AT_EPOCH":246,"BSTAR":0.0019929,"MEAN_MOTION_DOT":0.004148,"MEAN_MOTION_DDOT":0},{"OBJECT_NAME":"STARLINK-36271","OBJECT_ID":"2026-081E","EPOCH":"2026-04-29T20:19:53.709024","MEAN_MOTION":15.80998324,"ECCENTRICITY":0.0002146,"INCLINATION":53.158,"RA_OF_ASC_NODE":164.5253,"ARG_OF_PERICENTER":80.5486,"MEAN_ANOMALY":279.5779,"EPHEMERIS_TYPE":0,"CLASSIFICATION_TYPE":"U","NORAD_CAT_ID":68703,"ELEMENT_SET_NO":999,"REV_AT_EPOCH":246,"BSTAR":0.0017946,"MEAN_MOTION_DOT":0.00371294,"MEAN_MOTION_DDOT":0},{"OBJECT_NAME":"STARLINK-37356","OBJECT_ID":"2026-081F","EPOCH":"2026-04-29T20:18:48.811392","MEAN_MOTION":15.81020617,"ECCENTRICITY":0.0002154,"INCLINATION":53.1585,"RA_OF_ASC_NODE":164.5205,"ARG_OF_PERICENTER":65.808,"MEAN_ANOMALY":294.3168,"EPHEMERIS_TYPE":0,"CLASSIFICATION_TYPE":"U","NORAD_CAT_ID":68704,"ELEMENT_SET_NO":999,"REV_AT_EPOCH":246,"BSTAR":0.002033,"MEAN_MOTION_DOT":0.00423743,"MEAN_MOTION_DDOT":0},{"OBJECT_NAME":"STARLINK-35369","OBJECT_ID":"2026-081G","EPOCH":"2026-04-29T20:17:43.867104","MEAN_MOTION":15.80989308,"ECCENTRICITY":0.0001501,"INCLINATION":53.1582,"RA_OF_ASC_NODE":164.5162,"ARG_OF_PERICENTER":69.791,"MEAN_ANOMALY":290.3274,"EPHEMERIS_TYPE":0,"CLASSIFICATION_TYPE":"U","NORAD_CAT_ID":68705,"ELEMENT_SET_NO":999,"REV_AT_EPOCH":246,"BSTAR":0.0015669,"MEAN_MOTION_DOT":0.00322085,"MEAN_MOTION_DDOT":0},{"OBJECT_NAME":"STARLINK-37319","OBJECT_ID":"2026-081H","EPOCH":"2026-04-29T20:14:30.038208","MEAN_MOTION":15.81003604,"ECCENTRICITY":0.0002935,"INCLINATION":53.1582,"RA_OF_ASC_NODE":164.5003,"ARG_OF_PERICENTER":70.6753,"MEAN_ANOMALY":289.4587,"EPHEMERIS_TYPE":0,"CLASSIFICATION_TYPE":"U","NORAD_CAT_ID":68706,"ELEMENT_SET_NO":999,"REV_AT_EPOCH":246,"BSTAR":0.0020438,"MEAN_MOTION_DOT":0.00425755,"MEAN_MOTION_DDOT":0},{"OBJECT_NAME":"STARLINK-37112","OBJECT_ID":"2026-081J","EPOCH":"2026-04-29T20:16:39.182016","MEAN_MOTION":15.81020013,"ECCENTRICITY":0.000169,"INCLINATION":53.1585,"RA_OF_ASC_NODE":164.5106,"ARG_OF_PERICENTER":63.6469,"MEAN_ANOMALY":296.4728,"EPHEMERIS_TYPE":0,"CLASSIFICATION_TYPE":"U","NORAD_CAT_ID":68707,"ELEMENT_SET_NO":999,"REV_AT_EPOCH":246,"BSTAR":0.0021057,"MEAN_MOTION_DOT":0.00439731,"MEAN_MOTION_DDOT":0},{"OBJECT_NAME":"STARLINK-37340","OBJECT_ID":"2026-081K","EPOCH":"2026-04-29T20:15:34.324992","MEAN_MOTION":15.81008887,"ECCENTRICITY":0.0001842,"INCLINATION":53.1581,"RA_OF_ASC_NODE":164.5054,"ARG_OF_PERICENTER":70.9621,"MEAN_ANOMALY":289.1601,"EPHEMERIS_TYPE":0,"CLASSIFICATION_TYPE":"U","NORAD_CAT_ID":68708,"ELEMENT_SET_NO":999,"REV_AT_EPOCH":246,"BSTAR":0.0019012,"MEAN_MOTION_DOT":0.00394656,"MEAN_MOTION_DDOT":0}]
